CONNECTA IOT-4          
1 60524U 24149BJ  26065.17004627  .00018644  00000+0  49580-3 0  9994
2 60524  97.3842 148.6069 0004748 303.2345  56.8445 15.38272544 86477
ORESAT0.5               
1 60525U 24149BK  26065.20651356  .00023335  00000+0  56755-3 0  9991
2 60525  97.3760 149.9317 0004573 290.8071  69.2685 15.40960798 86595
DEIMOS                  
1 60526U 24149BL  26065.18782885  .00021075  00000+0  52422-3 0  9997
2 60526  97.3823 150.0911 0004569 300.1306  59.9487 15.40298304 86571
CUAVA-2                 
1 60527U 24149BM  26065.20703987  .00014814  00000+0  45942-3 0  9999
2 60527  97.3779 146.7285 0005780 305.6330  54.4373 15.33494623 86377
ERNST                   
1 60528U 24149BN  26065.16339185  .00016407  00000+0  46631-3 0  9996
2 60528  97.3853 148.3201 0004973 310.8303  49.2509 15.36232140 86446
TORO                    
1 60530U 24149BQ  26065.18315846  .00002014  00000+0  18465-3 0  9992
2 60530  97.6860 141.7753 0001242  81.7303 278.4059 14.95992686 84557
HYPSO-2                 
1 60531U 24149BR  26065.16897528  .00004198  00000+0  35837-3 0  9990
2 60531  97.6899 142.9448 0001640  79.6078 280.5329 14.98225650 84626
LEMU NGE                
1 60532U 24149BS  26065.15949464  .00002996  00000+0  28295-3 0  9991
2 60532  97.6911 142.2078 0001838  63.6500 296.4909 14.94470961 84562
LEMUR-2-STELLA          
1 60533U 24149BT  26065.21305056  .00013876  00000+0  87241-3 0  9997
2 60533  97.6782 147.3946 0001631  94.5672 265.5743 15.09346607 84955
SATELIOT_2              
1 60534U 24149BU  26065.16587395  .00002993  00000+0  27246-3 0  9997
2 60534  97.6898 142.0037 0002133  92.4474 267.6991 14.95921920 84568
NIGHTJAR                
1 60535U 24149BV  26065.17295160  .00004363  00000+0  37094-3 0  9990
2 60535  97.6928 143.3357 0002621  90.5798 269.5725 14.98362872127441
LEMUR-2-MARHISYAM       
1 60536U 24149BW  26065.22580357  .00013695  00000+0  87164-3 0  9993
2 60536  97.6925 147.7434 0003464 114.0507 246.1084 15.08898225 84943
SATELIOT_4              
1 60537U 24149BX  26065.19788923  .00002924  00000+0  26422-3 0  9992
2 60537  97.6798 141.6326 0002518  47.6223 312.5211 14.96233333 84578
PICO-02A021             
1 60538U 24149BY  26065.15637443  .00006689  00000+0  51279-3 0  9999
2 60538  97.6834 144.9383 0004317  16.1709 343.9652 15.02148717 84260
ICEYE-X43               
1 60539U 24149BZ  26065.20508523  .00004374  00000+0  36290-3 0  9997
2 60539  97.6830 143.5665 0002560  62.8754 297.2730 14.99301565 84682
HAWK-10A                
1 60540U 24149CA  26065.18832633  .00001521  00000+0  14014-3 0  9999
2 60540  97.6959 142.8691 0004675  66.2089 293.9622 14.96158044 84586
UMBRA-09                
1 60541U 24149CB  26065.19454365  .00021804  00000+0  11823-2 0  9993
2 60541  97.6992 150.8985 0000838 246.1988 113.9156 15.14592480 85113
QPS-SAR-8 (AMATERU-IV)  
1 60542U 24149CC  26065.30883237  .00008044  00000+0  60258-3 0  9999
2 60542  97.6696 145.3886 0003969 101.5399 258.6272 15.02962479 84810
ARCTIC WEATHER SATELLITE
1 60543U 24149CD  26065.12301787  .00001163  00000+0  12676-3 0  9991
2 60543  97.6887 138.4974 0003601  94.2652 265.8978 14.89810751 83953
CAPELLA-15 (ACADIA-5)   
1 60544U 24149CE  26065.07157255  .00002494  00000+0  24876-3 0  9998
2 60544  97.6833 140.5129 0004090  78.0982 282.0696 14.92429298 84472
HAWK-10B                
1 60545U 24149CF  26065.18819726  .00001531  00000+0  14099-3 0  9996
2 60545  97.6880 142.3268 0006629  80.4627 279.7343 14.96157330 84585
ICEYE-X39               
1 60546U 24149CG  26065.18309471  .00003857  00000+0  32143-3 0  9991
2 60546  97.6870 143.6051 0005721  64.6905 295.4910 14.99196644 84684
UMBRA-10                
1 60547U 24149CH  26065.19409428  .00021441  00000+0  11624-2 0  9995
2 60547  97.6998 150.9179 0000107 137.7082 222.4158 15.14603641 85121
ICEYE-X33               
1 60548U 24149CJ  26065.17834136  .00005297  00000+0  41847-3 0  9994
2 60548  97.7037 145.0477 0006158 132.3513 227.8233 15.01087027 84756
ICEYE-X40               
1 60549U 24149CK  26065.21788814  .00003336  00000+0  29082-3 0  9990
2 60549  97.6859 143.3724 0005823  73.1175 287.0685 14.97533307 84668
SATELIOT_1              
1 60550U 24149CL  26065.21454760  .00003237  00000+0  28192-3 0  9993
2 60550  97.6805 142.8351 0007653  68.0563 292.1472 14.97580279 84658
BRO-14                  
1 60551U 24149CM  26065.19454972  .00001339  00000+0  12474-3 0  9993
2 60551  97.6940 142.8129 0008037  84.2673 275.9464 14.95916221 84592
SATELIOT_3              
1 60552U 24149CN  26065.18998886  .00002713  00000+0  23716-3 0  9998
2 60552  97.6886 143.5088 0006250  72.6359 287.5546 14.97580481 84666
BRO-15                  
1 60553U 24149CP  26065.17437052  .00001234  00000+0  11537-3 0  9996
2 60553  97.6873 142.4922 0009566  76.0374 284.1910 14.95883194 84603
UM5-RIBAT               
1 60554U 24149CQ  26065.19444950  .00004593  00000+0  36985-3 0  9999
2 60554  97.6796 144.3573 0003665  92.8895 267.2749 15.00429973 84744
UM5-EOSAT               
1 60555U 24149CR  26065.18954750  .00004555  00000+0  36252-3 0  9998
2 60555  97.6871 145.1833 0009006 117.1533 243.0610 15.00857556 84765
LASARSAT                
1 62391U 24247Q   26065.18261950  .00030145  00000+0  74752-3 0  9991
2 62391  44.9741 118.2702 0002416   9.9195 350.1740 15.39898580 67402
CROCUBE                 
1 62394U 24247T   26065.15013712  .00034310  00000+0  81855-3 0  9992
2 62394  44.9725 117.1069 0002666 351.2743   8.8098 15.41011543 67413
TEVEL2-4                
1 63213U 25052D   26065.22978390  .00021496  00000+0  72449-3 0  9998
2 63213  97.4026 321.6683 0004643 102.3485 257.8276 15.30745860 54346
TEVEL2-5                
1 63214U 25052E   26065.24046753  .00022120  00000+0  74812-3 0  9991
2 63214  97.4024 321.6522 0004606 102.6614 257.5142 15.30628333 54347
TEVEL2-6                
1 63215U 25052F   26065.25020065  .00022223  00000+0  75251-3 0  9993
2 63215  97.4024 321.6479 0004705 103.4581 256.7185 15.30586491 54347
TEVEL2-1                
1 63217U 25052H   26065.24750817  .00021481  00000+0  73692-3 0  9991
2 63217  97.3999 321.3811 0004627 112.4118 247.7613 15.30171419 54330
TEVEL2-3                
1 63218U 25052J   26065.24516551  .00021441  00000+0  73478-3 0  9995
2 63218  97.4004 321.3898 0004582 112.8346 247.3379 15.30206494 54338
TEVEL2-2                
1 63219U 25052K   26065.24817260  .00021749  00000+0  74599-3 0  9993
2 63219  97.4000 321.3822 0004548 112.7454 247.4267 15.30174270 54336
TEVEL2-9                
1 63237U 25052AD  26065.23272910  .00019380  00000+0  70037-3 0  9990
2 63237  97.4062 320.9430 0007886 134.9619 225.2261 15.28472470 54283
TEVEL2-7                
1 63238U 25052AE  26065.25654977  .00019573  00000+0  71193-3 0  9998
2 63238  97.4060 320.9202 0007820 133.7958 226.3929 15.28258296 54281
TEVEL2-8                
1 63239U 25052AF  26065.26352179  .00019944  00000+0  72584-3 0  9996
2 63239  97.4060 320.9075 0007744 135.4315 224.7548 15.28236257 54283
HADES-ICM               
1 63492U 25052BN  26065.16133539  .00133888  00000+0  19161-2 0  9998
2 63492  97.3953 325.4839 0008718 117.9382 242.2756 15.55698664 54597
